[{"OBJECT_NAME":"HST","OBJECT_ID":"1990-037B","EPOCH":"2026-03-09T03:50:04.164288","MEAN_MOTION":15.29473555,"ECCENTRICITY":0.00018372,"INCLINATION":28.4717,"RA_OF_ASC_NODE":43.6133,"ARG_OF_PERICENTER":120.9992,"MEAN_ANOMALY":239.0785,"EPHEMERIS_TYPE":0,"CLASSIFICATION_TYPE":"U","NORAD_CAT_ID":20580,"ELEMENT_SET_NO":999,"REV_AT_EPOCH":77323,"BSTAR":0.0003002261,"MEAN_MOTION_DOT":9.063e-5,"MEAN_MOTION_DDOT":0},{"OBJECT_NAME":"STARLINK-35107","OBJECT_ID":"2025-195G","EPOCH":"2026-03-09T17:20:09.242016","MEAN_MOTION":15.30212768,"ECCENTRICITY":8.924e-5,"INCLINATION":53.1598,"RA_OF_ASC_NODE":257.68,"ARG_OF_PERICENTER":152.0857,"MEAN_ANOMALY":208.0192,"EPHEMERIS_TYPE":0,"CLASSIFICATION_TYPE":"U","NORAD_CAT_ID":65464,"ELEMENT_SET_NO":999,"REV_AT_EPOCH":3000,"BSTAR":0.0011506121,"MEAN_MOTION_DOT":0.00033888,"MEAN_MOTION_DDOT":0}]
